[{"OBJECT_NAME":"STARLINK-4064","OBJECT_ID":"2022-053K","EPOCH":"2026-03-09T12:42:14.542272","MEAN_MOTION":15.08814941,"ECCENTRICITY":0.00013554,"INCLINATION":53.2176,"RA_OF_ASC_NODE":154.8427,"ARG_OF_PERICENTER":86.5614,"MEAN_ANOMALY":273.5533,"EPHEMERIS_TYPE":0,"CLASSIFICATION_TYPE":"U","NORAD_CAT_ID":52665,"ELEMENT_SET_NO":999,"REV_AT_EPOCH":21102,"BSTAR":-0.0002472712,"MEAN_MOTION_DOT":-4.218e-5,"MEAN_MOTION_DDOT":0},{"OBJECT_NAME":"OBJECT E","OBJECT_ID":"2025-013E","EPOCH":"2026-03-09T23:59:52.369152","MEAN_MOTION":15.10347623,"ECCENTRICITY":0.00085591,"INCLINATION":97.6477,"RA_OF_ASC_NODE":238.3736,"ARG_OF_PERICENTER":6.9171,"MEAN_ANOMALY":353.2174,"EPHEMERIS_TYPE":0,"CLASSIFICATION_TYPE":"U","NORAD_CAT_ID":62733,"ELEMENT_SET_NO":999,"REV_AT_EPOCH":6224,"BSTAR":0.00032920786,"MEAN_MOTION_DOT":5.34e-5,"MEAN_MOTION_DDOT":0}]
